[{"OBJECT_NAME":"NPSAT1","OBJECT_ID":"2019-036B","EPOCH":"2026-03-02T15:08:48.178752","MEAN_MOTION":14.73393215,"ECCENTRICITY":0.0008339,"INCLINATION":23.9978,"RA_OF_ASC_NODE":191.1656,"ARG_OF_PERICENTER":87.3444,"MEAN_ANOMALY":272.8006,"EPHEMERIS_TYPE":0,"CLASSIFICATION_TYPE":"U","NORAD_CAT_ID":44340,"ELEMENT_SET_NO":999,"REV_AT_EPOCH":35675,"BSTAR":0.0012536,"MEAN_MOTION_DOT":8.554e-5,"MEAN_MOTION_DDOT":0},{"OBJECT_NAME":"FORMOSAT 7-3","OBJECT_ID":"2019-036E","EPOCH":"2026-03-02T18:00:44.742240","MEAN_MOTION":15.08833662,"ECCENTRICITY":0.0001378,"INCLINATION":23.998,"RA_OF_ASC_NODE":190.61,"ARG_OF_PERICENTER":96.3322,"MEAN_ANOMALY":263.7338,"EPHEMERIS_TYPE":0,"CLASSIFICATION_TYPE":"U","NORAD_CAT_ID":44343,"ELEMENT_SET_NO":999,"REV_AT_EPOCH":36714,"BSTAR":0.0004202,"MEAN_MOTION_DOT":7.135e-5,"MEAN_MOTION_DDOT":0},{"OBJECT_NAME":"FORMOSAT 7-1","OBJECT_ID":"2019-036L","EPOCH":"2026-03-02T14:41:48.513120","MEAN_MOTION":14.95964971,"ECCENTRICITY":8.22e-5,"INCLINATION":23.9991,"RA_OF_ASC_NODE":30.6213,"ARG_OF_PERICENTER":29.8076,"MEAN_ANOMALY":330.2471,"EPHEMERIS_TYPE":0,"CLASSIFICATION_TYPE":"U","NORAD_CAT_ID":44349,"ELEMENT_SET_NO":999,"REV_AT_EPOCH":36867,"BSTAR":0.00035538,"MEAN_MOTION_DOT":4.382e-5,"MEAN_MOTION_DDOT":0},{"OBJECT_NAME":"FORMOSAT 7-4","OBJECT_ID":"2019-036M","EPOCH":"2026-03-02T12:01:30.604224","MEAN_MOTION":14.95958145,"ECCENTRICITY":0.0001168,"INCLINATION":23.9985,"RA_OF_ASC_NODE":93.4682,"ARG_OF_PERICENTER":41.3817,"MEAN_ANOMALY":318.6772,"EPHEMERIS_TYPE":0,"CLASSIFICATION_TYPE":"U","NORAD_CAT_ID":44350,"ELEMENT_SET_NO":999,"REV_AT_EPOCH":36807,"BSTAR":0.00034249,"MEAN_MOTION_DOT":4.233e-5,"MEAN_MOTION_DDOT":0},{"OBJECT_NAME":"FORMOSAT 7-2","OBJECT_ID":"2019-036N","EPOCH":"2026-03-02T14:09:55.357920","MEAN_MOTION":14.95964369,"ECCENTRICITY":8.32e-5,"INCLINATION":23.9982,"RA_OF_ASC_NODE":147.1837,"ARG_OF_PERICENTER":54.9902,"MEAN_ANOMALY":305.0677,"EPHEMERIS_TYPE":0,"CLASSIFICATION_TYPE":"U","NORAD_CAT_ID":44351,"ELEMENT_SET_NO":999,"REV_AT_EPOCH":36760,"BSTAR":0.00033396,"MEAN_MOTION_DOT":4.135e-5,"MEAN_MOTION_DDOT":0},{"OBJECT_NAME":"FORMOSAT 7-6","OBJECT_ID":"2019-036Q","EPOCH":"2026-03-02T02:58:00.761952","MEAN_MOTION":14.95970719,"ECCENTRICITY":8.313e-5,"INCLINATION":23.9989,"RA_OF_ASC_NODE":331.1566,"ARG_OF_PERICENTER":297.3153,"MEAN_ANOMALY":62.7263,"EPHEMERIS_TYPE":0,"CLASSIFICATION_TYPE":"U","NORAD_CAT_ID":44353,"ELEMENT_SET_NO":999,"REV_AT_EPOCH":36576,"BSTAR":0.00032443332,"MEAN_MOTION_DOT":4.027e-5,"MEAN_MOTION_DDOT":0},{"OBJECT_NAME":"FORMOSAT 7-5","OBJECT_ID":"2019-036V","EPOCH":"2026-03-02T18:25:52.602816","MEAN_MOTION":14.95972818,"ECCENTRICITY":6.94e-5,"INCLINATION":23.9978,"RA_OF_ASC_NODE":265.5634,"ARG_OF_PERICENTER":48.9238,"MEAN_ANOMALY":311.1322,"EPHEMERIS_TYPE":0,"CLASSIFICATION_TYPE":"U","NORAD_CAT_ID":44358,"ELEMENT_SET_NO":999,"REV_AT_EPOCH":36639,"BSTAR":0.00032122,"MEAN_MOTION_DOT":3.99e-5,"MEAN_MOTION_DDOT":0},{"OBJECT_NAME":"METEOR-M2 2","OBJECT_ID":"2019-038A","EPOCH":"2026-03-02T21:22:43.329792","MEAN_MOTION":14.24329693,"ECCENTRICITY":0.0001243,"INCLINATION":98.907,"RA_OF_ASC_NODE":47.6484,"ARG_OF_PERICENTER":15.864,"MEAN_ANOMALY":344.2577,"EPHEMERIS_TYPE":0,"CLASSIFICATION_TYPE":"U","NORAD_CAT_ID":44387,"ELEMENT_SET_NO":999,"REV_AT_EPOCH":34616,"BSTAR":-4.2342e-5,"MEAN_MOTION_DOT":-1.44e-6,"MEAN_MOTION_DDOT":0},{"OBJECT_NAME":"COSMOS 2535","OBJECT_ID":"2019-039A","EPOCH":"2026-03-02T19:56:48.242688","MEAN_MOTION":14.91685384,"ECCENTRICITY":0.0007868,"INCLINATION":97.5903,"RA_OF_ASC_NODE":94.0126,"ARG_OF_PERICENTER":197.4931,"MEAN_ANOMALY":162.6019,"EPHEMERIS_TYPE":0,"CLASSIFICATION_TYPE":"U","NORAD_CAT_ID":44421,"ELEMENT_SET_NO":999,"REV_AT_EPOCH":36078,"BSTAR":0.00022592,"MEAN_MOTION_DOT":2.219e-5,"MEAN_MOTION_DDOT":0},{"OBJECT_NAME":"GLOBAL-4","OBJECT_ID":"2019-054E","EPOCH":"2026-03-02T05:42:23.673600","MEAN_MOTION":15.54707621,"ECCENTRICITY":0.00068839,"INCLINATION":45.0078,"RA_OF_ASC_NODE":129.0477,"ARG_OF_PERICENTER":322.7782,"MEAN_ANOMALY":37.2634,"EPHEMERIS_TYPE":0,"CLASSIFICATION_TYPE":"U","NORAD_CAT_ID":44499,"ELEMENT_SET_NO":999,"REV_AT_EPOCH":36366,"BSTAR":0.00064622116,"MEAN_MOTION_DOT":0.00043816,"MEAN_MOTION_DDOT":0},{"OBJECT_NAME":"ZY-1 02D","OBJECT_ID":"2019-059A","EPOCH":"2026-03-02T20:09:09.527904","MEAN_MOTION":14.35446009,"ECCENTRICITY":0.0002602,"INCLINATION":98.3329,"RA_OF_ASC_NODE":127.0332,"ARG_OF_PERICENTER":85.9514,"MEAN_ANOMALY":274.197,"EPHEMERIS_TYPE":0,"CLASSIFICATION_TYPE":"U","NORAD_CAT_ID":44528,"ELEMENT_SET_NO":999,"REV_AT_EPOCH":33908,"BSTAR":6.7516e-5,"MEAN_MOTION_DOT":1.52e-6,"MEAN_MOTION_DDOT":0},{"OBJECT_NAME":"TAURUS-1 (JINNIUZUO 1)","OBJECT_ID":"2019-059C","EPOCH":"2026-03-02T21:22:50.704896","MEAN_MOTION":14.70667625,"ECCENTRICITY":0.0008284,"INCLINATION":98.629,"RA_OF_ASC_NODE":220.2895,"ARG_OF_PERICENTER":279.876,"MEAN_ANOMALY":80.1509,"EPHEMERIS_TYPE":0,"CLASSIFICATION_TYPE":"U","NORAD_CAT_ID":44530,"ELEMENT_SET_NO":999,"REV_AT_EPOCH":34301,"BSTAR":0.0016829,"MEAN_MOTION_DOT":0.0001021,"MEAN_MOTION_DDOT":0},{"OBJECT_NAME":"ZHUHAI-1 03B","OBJECT_ID":"2019-060C","EPOCH":"2026-03-02T20:36:36.425952","MEAN_MOTION":15.47443818,"ECCENTRICITY":0.0008652,"INCLINATION":97.5386,"RA_OF_ASC_NODE":214.4836,"ARG_OF_PERICENTER":348.0283,"MEAN_ANOMALY":12.0759,"EPHEMERIS_TYPE":0,"CLASSIFICATION_TYPE":"U","NORAD_CAT_ID":44536,"ELEMENT_SET_NO":999,"REV_AT_EPOCH":35984,"BSTAR":0.00073971,"MEAN_MOTION_DOT":0.00038007,"MEAN_MOTION_DDOT":0},{"OBJECT_NAME":"ZHUHAI-1 03C","OBJECT_ID":"2019-060D","EPOCH":"2026-03-02T19:57:00.186624","MEAN_MOTION":15.69514795,"ECCENTRICITY":0.0011044,"INCLINATION":97.5506,"RA_OF_ASC_NODE":223.5755,"ARG_OF_PERICENTER":291.6277,"MEAN_ANOMALY":68.3807,"EPHEMERIS_TYPE":0,"CLASSIFICATION_TYPE":"U","NORAD_CAT_ID":44537,"ELEMENT_SET_NO":999,"REV_AT_EPOCH":36040,"BSTAR":0.00086887,"MEAN_MOTION_DOT":0.00103487,"MEAN_MOTION_DDOT":0},{"OBJECT_NAME":"ZHUHAI-1 03D","OBJECT_ID":"2019-060E","EPOCH":"2026-03-02T20:37:19.418592","MEAN_MOTION":15.43278259,"ECCENTRICITY":0.0008206,"INCLINATION":97.5236,"RA_OF_ASC_NODE":207.5429,"ARG_OF_PERICENTER":333.9011,"MEAN_ANOMALY":26.1821,"EPHEMERIS_TYPE":0,"CLASSIFICATION_TYPE":"U","NORAD_CAT_ID":44538,"ELEMENT_SET_NO":999,"REV_AT_EPOCH":35964,"BSTAR":0.0007309,"MEAN_MOTION_DOT":0.00032554,"MEAN_MOTION_DDOT":0},{"OBJECT_NAME":"ZHUHAI-1 03E","OBJECT_ID":"2019-060F","EPOCH":"2026-03-02T21:16:35.442048","MEAN_MOTION":15.37010783,"ECCENTRICITY":0.0006393,"INCLINATION":97.5448,"RA_OF_ASC_NODE":208.55,"ARG_OF_PERICENTER":51.6833,"MEAN_ANOMALY":308.4984,"EPHEMERIS_TYPE":0,"CLASSIFICATION_TYPE":"U","NORAD_CAT_ID":44539,"ELEMENT_SET_NO":999,"REV_AT_EPOCH":35941,"BSTAR":0.00073994,"MEAN_MOTION_DOT":0.00026785,"MEAN_MOTION_DDOT":0},{"OBJECT_NAME":"ATLAS 5 CENTAUR DEB","OBJECT_ID":"2018-079BG","EPOCH":"2026-03-02T04:39:34.469280","MEAN_MOTION":1.77432159,"ECCENTRICITY":0.4748066,"INCLINATION":13.5095,"RA_OF_ASC_NODE":48.0537,"ARG_OF_PERICENTER":281.946,"MEAN_ANOMALY":30.2815,"EPHEMERIS_TYPE":0,"CLASSIFICATION_TYPE":"U","NORAD_CAT_ID":44694,"ELEMENT_SET_NO":999,"REV_AT_EPOCH":4466,"BSTAR":0,"MEAN_MOTION_DOT":-1.63e-6,"MEAN_MOTION_DDOT":0}]
