NPSAT1                  
1 44340U 19036B   26061.63111318  .00008554  00000+0  12536-2 0  9993
2 44340  23.9978 191.1656 0008339  87.3444 272.8006 14.73393215356756
FORMOSAT 7-3            
1 44343U 19036E   26061.75051785  .00007135  00000+0  42020-3 0  9996
2 44343  23.9980 190.6100 0001378  96.3322 263.7338 15.08833662367147
FORMOSAT 7-1            
1 44349U 19036L   26061.61236705  .00004382  00000+0  35538-3 0  9991
2 44349  23.9991  30.6213 0000822  29.8076 330.2471 14.95964971368673
FORMOSAT 7-4            
1 44350U 19036M   26061.50104866  .00004233  00000+0  34249-3 0  9996
2 44350  23.9985  93.4682 0001168  41.3817 318.6772 14.95958145368075
FORMOSAT 7-2            
1 44351U 19036N   26061.59022405  .00004135  00000+0  33396-3 0  9997
2 44351  23.9982 147.1837 0000832  54.9902 305.0677 14.95964369367601
FORMOSAT 7-6            
1 44353U 19036Q   26061.12361993  .00004027  00000+0  32443-3 0  9998
2 44353  23.9989 331.1566 0000831 297.3153  62.7263 14.95970719365763
FORMOSAT 7-5            
1 44358U 19036V   26061.76796994  .00003990  00000+0  32122-3 0  9998
2 44358  23.9978 265.5634 0000694  48.9238 311.1322 14.95972818366392
METEOR-M2 2             
1 44387U 19038A   26061.89077928 -.00000144  00000+0 -42342-4 0  9991
2 44387  98.9070  47.6484 0001243  15.8640 344.2577 14.24329693346163
COSMOS 2535             
1 44421U 19039A   26061.83111392  .00002219  00000+0  22592-3 0  9996
2 44421  97.5903  94.0126 0007868 197.4931 162.6019 14.91685384360783
GLOBAL-4                
1 44499U 19054E   26061.23777400  .00043816  00000+0  64622-3 0  9998
2 44499  45.0078 129.0477 0006883 322.7782  37.2634 15.54707621363669
ZY-1 02D                
1 44528U 19059A   26061.83969361  .00000152  00000+0  67516-4 0  9993
2 44528  98.3329 127.0332 0002602  85.9514 274.1970 14.35446009339088
TAURUS-1 (JINNIUZUO 1)  
1 44530U 19059C   26061.89086464  .00010210  00000+0  16829-2 0  9991
2 44530  98.6290 220.2895 0008284 279.8760  80.1509 14.70667625343019
ZHUHAI-1 03B            
1 44536U 19060C   26061.85875493  .00038007  00000+0  73971-3 0  9999
2 44536  97.5386 214.4836 0008652 348.0283  12.0759 15.47443818359847
ZHUHAI-1 03C            
1 44537U 19060D   26061.83125216  .00103487  00000+0  86887-3 0  9994
2 44537  97.5506 223.5755 0011044 291.6277  68.3807 15.69514795360407
ZHUHAI-1 03D            
1 44538U 19060E   26061.85925253  .00032554  00000+0  73090-3 0  9994
2 44538  97.5236 207.5429 0008206 333.9011  26.1821 15.43278259359646
ZHUHAI-1 03E            
1 44539U 19060F   26061.88652132  .00026785  00000+0  73994-3 0  9993
2 44539  97.5448 208.5500 0006393  51.6833 308.4984 15.37010783359414
ATLAS 5 CENTAUR DEB     
1 44694U 18079BG  26061.19414895 -.00000163  00000+0  00000+0 0  9997
2 44694  13.5095  48.0537 4748066 281.9460  30.2815  1.77432159 44662
